start=new Date('2022-06-01T00:00:00.000Z').valueOf();
sats=[{"REV_AT_EPOCH":"12924","MEAN_ANOMALY":"295.5580","DECAY_DATE":null,"MEAN_ELEMENT_THEORY":"SGP4","MEAN_MOTION":"15.06397848","OBJECT_NAME":"STARLINK-1152","OBJECT_TYPE":"PAYLOAD","OBJECT_ID":"2020-006BE","EPHEMERIS_TYPE":"0","GP_ID":"205027284","CLASSIFICATION_TYPE":"U","TLE_LINE1":"1 45096U 20006BE  22151.17655163 -.00000157  00000-0  83982-5 0  9996","LAUNCH_DATE":"2020-01-29","MEAN_MOTION_DOT":"-0.00000157","COUNTRY_CODE":"US","TIME_SYSTEM":"UTC","RCS_SIZE":"LARGE","PERIOD":"95.592","EPOCH":"2022-05-31T04:14:14.060832","NORAD_CAT_ID":"45096","SITE":"AFETR","BSTAR":"0.00000839820000","ECCENTRICITY":"0.00018270","PERIAPSIS":"545.955","FILE":"3474118","TLE_LINE2":"2 45096  53.0544 315.0060 0001827  64.5597 295.5580 15.06397848129249","ARG_OF_PERICENTER":"64.5597","RA_OF_ASC_NODE":"315.0060","APOAPSIS":"548.485","MEAN_MOTION_DDOT":"0.0000000000000","SEMIMAJOR_AXIS":"6925.355","ELEMENT_SET_NO":"999","CENTER_NAME":"EARTH","REF_FRAME":"TEME","INCLINATION":"53.0544"},{"NORAD_CAT_ID":"45098","SITE":"AFETR","EPOCH":"2022-05-31T03:47:43.078272","RCS_SIZE":"LARGE","PERIOD":"95.593","PERIAPSIS":"546.300","FILE":"3474118","BSTAR":"-0.00009758500000","ECCENTRICITY":"0.00013680","SEMIMAJOR_AXIS":"6925.382","MEAN_MOTION_DDOT":"0.0000000000000","TLE_LINE2":"2 45098  53.0544 315.0868 0001368  77.1178 282.9963 15.06389087129243","ARG_OF_PERICENTER":"77.1178","RA_OF_ASC_NODE":"315.0868","APOAPSIS":"548.194","REF_FRAME":"TEME","INCLINATION":"53.0544","ELEMENT_SET_NO":"999","CENTER_NAME":"EARTH","DECAY_DATE":null,"MEAN_ELEMENT_THEORY":"SGP4","MEAN_MOTION":"15.06389087","REV_AT_EPOCH":"12924","MEAN_ANOMALY":"282.9963","OBJECT_ID":"2020-006BG","EPHEMERIS_TYPE":"0","OBJECT_NAME":"STARLINK-1184","OBJECT_TYPE":"PAYLOAD","TLE_LINE1":"1 45098U 20006BG  22151.15813748 -.00001734  00000-0 -97585-4 0  9997","LAUNCH_DATE":"2020-01-29","GP_ID":"205026038","CLASSIFICATION_TYPE":"U","MEAN_MOTION_DOT":"-0.00001734","COUNTRY_CODE":"US","TIME_SYSTEM":"UTC"},{"EPOCH":"2022-05-31T04:35:28.684608","RCS_SIZE":"LARGE","PERIOD":"95.593","SITE":"AFETR","NORAD_CAT_ID":"45099","ECCENTRICITY":"0.00014970","BSTAR":"-0.00000976900000","FILE":"3474118","PERIAPSIS":"546.201","RA_OF_ASC_NODE":"314.9523","APOAPSIS":"548.275","ARG_OF_PERICENTER":"56.5329","TLE_LINE2":"2 45099  53.0559 314.9523 0001497  56.5329 303.5803 15.06392016129607","MEAN_MOTION_DDOT":"0.0000000000000","SEMIMAJOR_AXIS":"6925.373","CENTER_NAME":"EARTH","ELEMENT_SET_NO":"999","INCLINATION":"53.0559","REF_FRAME":"TEME","REV_AT_EPOCH":"12960","MEAN_ANOMALY":"303.5803","MEAN_MOTION":"15.06392016","DECAY_DATE":null,"MEAN_ELEMENT_THEORY":"SGP4","OBJECT_TYPE":"PAYLOAD","OBJECT_NAME":"STARLINK-1186","EPHEMERIS_TYPE":"0","OBJECT_ID":"2020-006BH","CLASSIFICATION_TYPE":"U","GP_ID":"205026288","TLE_LINE1":"1 45099U 20006BH  22151.19130422 -.00000427  00000-0 -97690-5 0  9999","LAUNCH_DATE":"2020-01-29","COUNTRY_CODE":"US","TIME_SYSTEM":"UTC","MEAN_MOTION_DOT":"-0.00000427"},{"TLE_LINE1":"1 45100U 20006BJ  22151.15445825 -.00001545  00000-0 -84888-4 0  9990","LAUNCH_DATE":"2020-01-29","GP_ID":"205027035","CLASSIFICATION_TYPE":"U","MEAN_MOTION_DOT":"-0.00001545","TIME_SYSTEM":"UTC","COUNTRY_CODE":"US","DECAY_DATE":null,"MEAN_ELEMENT_THEORY":"SGP4","MEAN_MOTION":"15.06387419","REV_AT_EPOCH":"12924","MEAN_ANOMALY":"297.6184","OBJECT_ID":"2020-006BJ","EPHEMERIS_TYPE":"0","OBJECT_NAME":"STARLINK-1193","OBJECT_TYPE":"PAYLOAD","MEAN_MOTION_DDOT":"0.0000000000000","SEMIMAJOR_AXIS":"6925.387","TLE_LINE2":"2 45100  53.0565 315.1086 0001474  62.4955 297.6184 15.06387419129246","ARG_OF_PERICENTER":"62.4955","RA_OF_ASC_NODE":"315.1086","APOAPSIS":"548.273","REF_FRAME":"TEME","INCLINATION":"53.0565","ELEMENT_SET_NO":"999","CENTER_NAME":"EARTH","NORAD_CAT_ID":"45100","SITE":"AFETR","EPOCH":"2022-05-31T03:42:25.192800","RCS_SIZE":"LARGE","PERIOD":"95.593","PERIAPSIS":"546.231","FILE":"3474118","BSTAR":"-0.00008488800000","ECCENTRICITY":"0.00014740"},{"OBJECT_ID":"2020-006BK","EPHEMERIS_TYPE":"0","OBJECT_NAME":"STARLINK-1194","OBJECT_TYPE":"PAYLOAD","DECAY_DATE":null,"MEAN_ELEMENT_THEORY":"SGP4","MEAN_MOTION":"15.06388791","REV_AT_EPOCH":"12924","MEAN_ANOMALY":"298.5184","MEAN_MOTION_DOT":"-0.00001676","COUNTRY_CODE":"US","TIME_SYSTEM":"UTC","LAUNCH_DATE":"2020-01-29","TLE_LINE1":"1 45101U 20006BK  22151.15076587 -.00001676  00000-0 -93661-4 0  9990","GP_ID":"205027784","CLASSIFICATION_TYPE":"U","PERIAPSIS":"546.221","FILE":"3474118","BSTAR":"-0.00009366100000","ECCENTRICITY":"0.00014830","NORAD_CAT_ID":"45101","SITE":"AFETR","RCS_SIZE":"LARGE","EPOCH":"2022-05-31T03:37:06.171168","PERIOD":"95.593","REF_FRAME":"TEME","INCLINATION":"53.0556","ELEMENT_SET_NO":"999","CENTER_NAME":"EARTH","MEAN_MOTION_DDOT":"0.0000000000000","SEMIMAJOR_AXIS":"6925.383","TLE_LINE2":"2 45101  53.0556 315.1076 0001483  61.5954 298.5184 15.06388791129249","ARG_OF_PERICENTER":"61.5954","RA_OF_ASC_NODE":"315.1076","APOAPSIS":"548.275"},{"TIME_SYSTEM":"UTC","COUNTRY_CODE":"US","MEAN_MOTION_DOT":"-0.00002469","CLASSIFICATION_TYPE":"U","GP_ID":"205026538","TLE_LINE1":"1 45102U 20006BL  22150.64210306 -.00002469  00000-0 -14697-3 0  9995","LAUNCH_DATE":"2020-01-29","OBJECT_TYPE":"PAYLOAD","OBJECT_NAME":"STARLINK-1195","EPHEMERIS_TYPE":"0","OBJECT_ID":"2020-006BL","REV_AT_EPOCH":"12916","MEAN_ANOMALY":"288.7326","MEAN_MOTION":"15.06388592","DECAY_DATE":null,"MEAN_ELEMENT_THEORY":"SGP4","CENTER_NAME":"EARTH","ELEMENT_SET_NO":"999","INCLINATION":"53.0548","REF_FRAME":"TEME","RA_OF_ASC_NODE":"317.4076","APOAPSIS":"548.181","TLE_LINE2":"2 45102  53.0548 317.4076 0001347  71.3809 288.7326 15.06388592129162","ARG_OF_PERICENTER":"71.3809","MEAN_MOTION_DDOT":"0.0000000000000","SEMIMAJOR_AXIS":"6925.384","ECCENTRICITY":"0.00013470","BSTAR":"-0.00014697000000","FILE":"3474118","PERIAPSIS":"546.316","RCS_SIZE":"LARGE","EPOCH":"2022-05-30T15:24:37.704384","PERIOD":"95.593","SITE":"AFETR","NORAD_CAT_ID":"45102"},{"NORAD_CAT_ID":"45103","SITE":"AFETR","RCS_SIZE":"LARGE","EPOCH":"2022-05-30T19:22:07.039488","PERIOD":"95.593","PERIAPSIS":"546.232","FILE":"3472994","BSTAR":"-0.00008910500000","ECCENTRICITY":"0.00014690","SEMIMAJOR_AXIS":"6925.384","MEAN_MOTION_DDOT":"0.0000000000000","ARG_OF_PERICENTER":"93.3182","TLE_LINE2":"2 45103  53.0515 316.6987 0001469  93.3182 266.7975 15.06388336129197","APOAPSIS":"548.267","RA_OF_ASC_NODE":"316.6987","REF_FRAME":"TEME","INCLINATION":"53.0515","ELEMENT_SET_NO":"999","CENTER_NAME":"EARTH","MEAN_ELEMENT_THEORY":"SGP4","DECAY_DATE":null,"MEAN_MOTION":"15.06388336","REV_AT_EPOCH":"12919","MEAN_ANOMALY":"266.7975","OBJECT_ID":"2020-006BM","EPHEMERIS_TYPE":"0","OBJECT_NAME":"STARLINK-1196","OBJECT_TYPE":"PAYLOAD","TLE_LINE1":"1 45103U 20006BM  22150.80702592 -.00001608  00000-0 -89105-4 0  9998","LAUNCH_DATE":"2020-01-29","GP_ID":"204974995","CLASSIFICATION_TYPE":"U","MEAN_MOTION_DOT":"-0.00001608","COUNTRY_CODE":"US","TIME_SYSTEM":"UTC"},{"BSTAR":"-0.00004237400000","ECCENTRICITY":"0.00019650","PERIAPSIS":"545.866","FILE":"3474118","PERIOD":"95.592","RCS_SIZE":"LARGE","EPOCH":"2022-05-31T04:35:28.351104","NORAD_CAT_ID":"45178","SITE":"AFETR","ELEMENT_SET_NO":"999","CENTER_NAME":"EARTH","REF_FRAME":"TEME","INCLINATION":"53.0567","TLE_LINE2":"2 45178  53.0567 114.9466 0001965  54.6328 305.4845 15.06395711127000","ARG_OF_PERICENTER":"54.6328","APOAPSIS":"548.588","RA_OF_ASC_NODE":"114.9466","SEMIMAJOR_AXIS":"6925.362","MEAN_MOTION_DDOT":"0.0000000000000","OBJECT_NAME":"STARLINK-1138","OBJECT_TYPE":"PAYLOAD","OBJECT_ID":"2020-012A","EPHEMERIS_TYPE":"0","REV_AT_EPOCH":"12700","MEAN_ANOMALY":"305.4845","MEAN_ELEMENT_THEORY":"SGP4","DECAY_DATE":null,"MEAN_MOTION":"15.06395711","MEAN_MOTION_DOT":"-0.00000913","TIME_SYSTEM":"UTC","COUNTRY_CODE":"US","GP_ID":"205027292","CLASSIFICATION_TYPE":"U","LAUNCH_DATE":"2020-02-17","TLE_LINE1":"1 45178U 20012A   22151.19130036 -.00000913  00000-0 -42374-4 0  9993"},{"MEAN_MOTION_DOT":"0.00000284","TIME_SYSTEM":"UTC","COUNTRY_CODE":"US","GP_ID":"205037501","CLASSIFICATION_TYPE":"U","LAUNCH_DATE":"2020-02-17","TLE_LINE1":"1 45179U 20012B   22151.59306172  .00000284  00000-0  37950-4 0  9997","OBJECT_TYPE":"PAYLOAD","OBJECT_NAME":"STARLINK-1143","OBJECT_ID":"2020-012B","EPHEMERIS_TYPE":"0","MEAN_ANOMALY":"304.6333","REV_AT_EPOCH":"12647","DECAY_DATE":null,"MEAN_ELEMENT_THEORY":"SGP4","MEAN_MOTION":"15.06396708","ELEMENT_SET_NO":"999","CENTER_NAME":"EARTH","REF_FRAME":"TEME","INCLINATION":"53.0556","TLE_LINE2":"2 45179  53.0556 113.1235 0002075  55.4852 304.6333 15.06396708126478","ARG_OF_PERICENTER":"55.4852","RA_OF_ASC_NODE":"113.1235","APOAPSIS":"548.661","SEMIMAJOR_AXIS":"6925.359","MEAN_MOTION_DDOT":"0.0000000000000","BSTAR":"0.00003795000000","ECCENTRICITY":"0.00020750","PERIAPSIS":"545.787","FILE":"3474380","PERIOD":"95.592","RCS_SIZE":"LARGE","EPOCH":"2022-05-31T14:14:00.532608","NORAD_CAT_ID":"45179","SITE":"AFETR"},{"MEAN_MOTION_DOT":"0.00012423","COUNTRY_CODE":"US","TIME_SYSTEM":"UTC","LAUNCH_DATE":"2020-02-17","TLE_LINE1":"1 45180U 20012C   22151.16708501  .00012423  00000-0  79203-3 0  9998","GP_ID":"205026296","CLASSIFICATION_TYPE":"U","OBJECT_ID":"2020-012C","EPHEMERIS_TYPE":"0","OBJECT_NAME":"STARLINK-1192","OBJECT_TYPE":"PAYLOAD","DECAY_DATE":null,"MEAN_ELEMENT_THEORY":"SGP4","MEAN_MOTION":"15.09078950","REV_AT_EPOCH":"12707","MEAN_ANOMALY":"324.9682","REF_FRAME":"TEME","INCLINATION":"53.0513","ELEMENT_SET_NO":"999","CENTER_NAME":"EARTH","SEMIMAJOR_AXIS":"6917.150","MEAN_MOTION_DDOT":"0.0000000000000","ARG_OF_PERICENTER":"35.1453","TLE_LINE2":"2 45180  53.0513 114.1290 0002194  35.1453 324.9682 15.09078950127077","RA_OF_ASC_NODE":"114.1290","APOAPSIS":"540.533","PERIAPSIS":"537.497","FILE":"3474118","BSTAR":"0.00079203000000","ECCENTRICITY":"0.00021940","NORAD_CAT_ID":"45180","SITE":"AFETR","EPOCH":"2022-05-31T04:00:36.144864","RCS_SIZE":"LARGE","PERIOD":"95.422"}];
